[{"OBJECT_NAME":"GEESAT-5 07","OBJECT_ID":"2025-201G","EPOCH":"2026-03-09T16:52:51.170592","MEAN_MOTION":14.83775124,"ECCENTRICITY":0.0013769,"INCLINATION":49.9868,"RA_OF_ASC_NODE":140.5179,"ARG_OF_PERICENTER":289.0003,"MEAN_ANOMALY":70.9443,"EPHEMERIS_TYPE":0,"CLASSIFICATION_TYPE":"U","NORAD_CAT_ID":65556,"ELEMENT_SET_NO":999,"REV_AT_EPOCH":2702,"BSTAR":0.00035187947,"MEAN_MOTION_DOT":2.721e-5,"MEAN_MOTION_DDOT":0},{"OBJECT_NAME":"SL-14 R\/B","OBJECT_ID":"1984-105B","EPOCH":"2026-03-09T12:29:04.121376","MEAN_MOTION":14.85838389,"ECCENTRICITY":0.00185681,"INCLINATION":82.5301,"RA_OF_ASC_NODE":85.7447,"ARG_OF_PERICENTER":291.3248,"MEAN_ANOMALY":184.9077,"EPHEMERIS_TYPE":0,"CLASSIFICATION_TYPE":"U","NORAD_CAT_ID":15332,"ELEMENT_SET_NO":999,"REV_AT_EPOCH":21819,"BSTAR":6.6372461e-5,"MEAN_MOTION_DOT":6.03e-6,"MEAN_MOTION_DDOT":0}]
